COSMOS 2425 (716)       
1 29670U 06062A   21315.92324561 -.00000025  00000-0  00000-0 0  9990
2 29670  64.8083 250.4683 0024455 342.4294 269.4956  2.13114428115814
COSMOS 2433 (720)       
1 32275U 07052A   21316.71883002 -.00000083  00000-0  00000+0 0  9996
2 32275  66.0775  11.8652 0004586 232.1936  76.9259  2.13104228109342
COSMOS 2432 (719)       
1 32276U 07052B   21316.78663946 -.00000083  00000-0  00000+0 0  9997
2 32276  66.0900  11.9608 0009154 316.3333 353.6837  2.13103409109344
COSMOS 2434 (721)       
1 32393U 07065A   21316.32736564 -.00000032  00000-0  00000-0 0  9993
2 32393  64.4277 248.8455 0001172  76.4037 181.2091  2.13103099108049
COSMOS 2436 (723)       
1 32395U 07065C   21316.49245845 -.00000034  00000-0  00000-0 0  9992
2 32395  64.4365 248.8944 0015391 354.5617 165.7242  2.13102911107983
COSMOS 2456 (730)       
1 36111U 09070A   21316.04355139  .00000089  00000-0  00000-0 0  9998
2 36111  64.3020 128.5186 0001820 352.2698 216.2235  2.13099270 92708
COSMOS 2457 (733)       
1 36112U 09070B   21316.30952341  .00000091  00000-0  00000-0 0  9999
2 36112  64.2866 128.3911 0006782 147.7303  30.3720  2.13101504 92711
COSMOS 2459 (731)       
1 36400U 10007A   21316.38977913 -.00000082  00000-0  00000-0 0  9992
2 36400  65.9713  10.7804 0025312 346.2362 290.4762  2.13109930 91058
COSMOS 2461 (735)       
1 36401U 10007B   21316.39008470 -.00000082  00000-0  00000-0 0  9997
2 36401  65.9665  10.7441 0018019   3.8822 270.7151  2.13103634 91064
COSMOS 2460 (732)       
1 36402U 10007C   21316.65576021 -.00000082  00000-0  00000+0 0  9998
2 36402  65.9536  10.6907 0001962 210.2712 214.4661  2.13106517 91074
COSMOS 2464 (736)       
1 37139U 10041C   21316.05530278 -.00000029  00000-0  00000-0 0  9994
2 37139  64.0265 248.0378 0028275   7.2233 261.5004  2.13100809 87110
COSMOS 2471 (701K)      
1 37372U 11009A   21316.31680773 -.00000082  00000-0  00000-0 0  9992
2 37372  65.9471  10.6300 0017302 229.1006  61.0918  2.13062341 83333
COSMOS 2476 (744)       
1 37867U 11064A   21316.82948581  .00000095  00000-0  00000+0 0  9994
2 37867  64.5954 129.7634 0019538 230.5154 124.5136  2.13101887 78068
COSMOS 2477 (745)       
1 37868U 11064B   21316.37076181  .00000092  00000-0  00000-0 0  9991
2 37868  64.6038 129.8406 0016825 231.0268 310.3432  2.13101726 78010
COSMOS 2475 (743)       
1 37869U 11064C   21316.29014144  .00000092  00000-0  00000-0 0  9994
2 37869  64.6105 129.8501 0020226 253.0323 184.3420  2.13101999 78027
COSMOS 2485 (747)       
1 39155U 13019A   21316.71751709  .00000095  00000-0  00000+0 0  9990
2 39155  64.7613 130.1483 0020146 226.3420  87.2560  2.13101946 66539
COSMOS 2492 (754)       
1 39620U 14012A   21316.65259620 -.00000082  00000-0  00000+0 0  9996
2 39620  65.8407  10.4019 0012396 314.2479 344.1864  2.13103258 59489
COSMOS 2500 (755)       
1 40001U 14032A   21316.48190638 -.00000082  00000-0  00000-0 0  9998
2 40001  65.7813  10.2836 0008360 205.0916 181.6368  2.13102363 57700
COSMOS 2501 (702K)      
1 40315U 14075A   21316.45081563 -.00000034  00000-0  00000-0 0  9993
2 40315  63.7374 248.7757 0017803 212.2940 317.5715  2.13101302 54106
COSMOS 2514 (751)       
1 41330U 16008A   21316.28748250 -.00000082  00000-0  00000-0 0  9996
2 41330  65.5822  10.0369 0012078 213.2334 207.7614  2.13102805 44867
COSMOS 2516 (753)       
1 41554U 16032A   21316.66564039 -.00000037  00000-0  00000+0 0  9993
2 41554  63.9625 248.9824 0014269 221.7278  27.9204  2.13107111 42478
COSMOS 2522 (752)       
1 42939U 17055A   21316.18477046 -.00000030  00000-0  00000-0 0  9999
2 42939  64.1960 249.3309 0008833 250.1075 210.8436  2.13102104 32224
COSMOS 2527 (756)       
1 43508U 18053A   21316.25913500  .00000093  00000-0  00000-0 0  9997
2 43508  64.9237 130.1190 0006853 212.1533 337.9718  2.13102583 26514
COSMOS 2529 (757)       
1 43687U 18086A   21316.33774288 -.00000032  00000-0  00000-0 0  9992
2 43687  64.4109 249.5835 0011115 270.2712 263.5807  2.13102119 23534
COSMOS 2534 (758)       
1 44299U 19030A   21316.25976264 -.00000031  00000-0  00000-0 0  9990
2 44299  64.4819 249.4508 0013864 288.1565 320.6009  2.13101880 19173
COSMOS 2544 (759)       
1 44850U 19088A   21316.43450824  .00000094  00000-0  00000-0 0  9993
2 44850  64.9092 129.9696 0009858 253.8852 114.4097  2.13102353 14953
COSMOS 2545 (760)       
1 45358U 20018A   21316.51709954 -.00000084  00000-0  00000-0 0  9992
2 45358  64.9180  10.8153 0010687 241.7786  39.6840  2.13102707 12905
